STARLINK-36040          
1 66614U 25270AC  25351.58336806  .00026448  00000+0  63925-3 0  9995
2 66614  42.9992 164.3811 0001836 276.0005 192.4557 15.40649470  5022
STARLINK-35988          
1 66615U 25270AD  25351.58336806  .00006418  00000+0  16074-3 0  9994
2 66615  42.9986 164.5628 0001483 246.2412 147.4448 15.40705346  5027
STARLINK-35391          
1 66616U 25270AE  25349.94601707  .00049688  00000+0  84718-3 0  9993
2 66616  42.9989 173.8523 0001755 256.7172 103.3493 15.50586233  4954
STARLINK-35940          
1 66617U 25271A   25351.58336806 -.00000005  00000+0  98667-5 0  9994
2 66617  53.1584 164.2602 0001657 124.8162 261.0073 15.39646887  5021
STARLINK-35970          
1 66618U 25271B   25351.55248023  .00050364  00000+0  90764-3 0  9995
2 66618  53.1597 164.1096 0000690  81.3650 278.7438 15.49313148  4950
STARLINK-35951          
1 66619U 25271C   25351.62515300  .00060899  00000+0  10930-2 0  9999
2 66619  53.1593 163.8581 0000642  13.2004 346.9022 15.49347323  4966
STARLINK-35936          
1 66620U 25271D   25351.62618341  .00066138  00000+0  11865-2 0  9990
2 66620  53.1599 163.8656 0001253  90.3166 269.7987 15.49324687  4961
STARLINK-35847          
1 66621U 25271E   25351.55183037  .00073310  00000+0  13129-2 0  9997
2 66621  53.1596 164.1047 0000853  30.3801 329.7258 15.49330101  4957
STARLINK-35950          
1 66622U 25271F   25351.58336806 -.02091289  00000+0 -50040-1 0  9996
2 66622  53.1600 164.0724 0001250  72.0474  47.4875 15.44516395  5020
STARLINK-35920          
1 66623U 25271G   25351.58336806  .00002690  00000+0  77203-4 0  9994
2 66623  53.1594 164.1543 0000971 108.8402 328.6036 15.39621707  5022
STARLINK-35927          
1 66624U 25271H   25351.55995842  .00059561  00000+0  10703-2 0  9992
2 66624  53.1595 164.1625 0000845  67.9465 292.1633 15.49322202  4957
STARLINK-35929          
1 66625U 25271J   25351.55927045  .00060750  00000+0  10908-2 0  9992
2 66625  53.1596 164.1569 0001481 102.8495 257.2680 15.49335545  4953
