CCSDS_OMM_VERS = 2.0
CREATION_DATE  = 
ORIGINATOR     = 

OBJECT_NAME    = STARLINK-36040
OBJECT_ID      = 2025-270AC
CENTER_NAME    = EARTH
REF_FRAME      = TEME
TIME_SYSTEM    = UTC
MEAN_ELEMENT_THEORY = SGP/SGP4

EPOCH          = 2025-12-17T14:00:03.000384
MEAN_MOTION    = 15.40649470
ECCENTRICITY   = .00018361
INCLINATION    = 42.9992
RA_OF_ASC_NODE = 164.3811
ARG_OF_PERICENTER = 276.0005
MEAN_ANOMALY   = 192.4557

EPHEMERIS_TYPE = 0
CLASSIFICATION_TYPE = U
NORAD_CAT_ID   = 66614
ELEMENT_SET_NO = 999
REV_AT_EPOCH   = 502
BSTAR          = .63925008E-3
MEAN_MOTION_DOT = .26448E-3
MEAN_MOTION_DDOT = 0

CCSDS_OMM_VERS = 2.0
CREATION_DATE  = 
ORIGINATOR     = 

OBJECT_NAME    = STARLINK-35988
OBJECT_ID      = 2025-270AD
CENTER_NAME    = EARTH
REF_FRAME      = TEME
TIME_SYSTEM    = UTC
MEAN_ELEMENT_THEORY = SGP/SGP4

EPOCH          = 2025-12-17T14:00:03.000384
MEAN_MOTION    = 15.40705346
ECCENTRICITY   = .00014832
INCLINATION    = 42.9986
RA_OF_ASC_NODE = 164.5628
ARG_OF_PERICENTER = 246.2412
MEAN_ANOMALY   = 147.4448

EPHEMERIS_TYPE = 0
CLASSIFICATION_TYPE = U
NORAD_CAT_ID   = 66615
ELEMENT_SET_NO = 999
REV_AT_EPOCH   = 502
BSTAR          = .16073502E-3
MEAN_MOTION_DOT = .6418E-4
MEAN_MOTION_DDOT = 0

CCSDS_OMM_VERS = 2.0
CREATION_DATE  = 
ORIGINATOR     = 

OBJECT_NAME    = STARLINK-35391
OBJECT_ID      = 2025-270AE
CENTER_NAME    = EARTH
REF_FRAME      = TEME
TIME_SYSTEM    = UTC
MEAN_ELEMENT_THEORY = SGP/SGP4

EPOCH          = 2025-12-15T22:42:15.874848
MEAN_MOTION    = 15.50586233
ECCENTRICITY   = .00017552
INCLINATION    = 42.9989
RA_OF_ASC_NODE = 173.8523
ARG_OF_PERICENTER = 256.7172
MEAN_ANOMALY   = 103.3493

EPHEMERIS_TYPE = 0
CLASSIFICATION_TYPE = U
NORAD_CAT_ID   = 66616
ELEMENT_SET_NO = 999
REV_AT_EPOCH   = 495
BSTAR          = .84717563E-3
MEAN_MOTION_DOT = .49688E-3
MEAN_MOTION_DDOT = 0

CCSDS_OMM_VERS = 2.0
CREATION_DATE  = 
ORIGINATOR     = 

OBJECT_NAME    = STARLINK-35940
OBJECT_ID      = 2025-271A
CENTER_NAME    = EARTH
REF_FRAME      = TEME
TIME_SYSTEM    = UTC
MEAN_ELEMENT_THEORY = SGP/SGP4

EPOCH          = 2025-12-17T14:00:03.000384
MEAN_MOTION    = 15.39646887
ECCENTRICITY   = .00016579
INCLINATION    = 53.1584
RA_OF_ASC_NODE = 164.2602
ARG_OF_PERICENTER = 124.8162
MEAN_ANOMALY   = 261.0073

EPHEMERIS_TYPE = 0
CLASSIFICATION_TYPE = U
NORAD_CAT_ID   = 66617
ELEMENT_SET_NO = 999
REV_AT_EPOCH   = 502
BSTAR          = .9866692E-5
MEAN_MOTION_DOT = -.5E-7
MEAN_MOTION_DDOT = 0

CCSDS_OMM_VERS = 2.0
CREATION_DATE  = 
ORIGINATOR     = 

OBJECT_NAME    = STARLINK-35970
OBJECT_ID      = 2025-271B
CENTER_NAME    = EARTH
REF_FRAME      = TEME
TIME_SYSTEM    = UTC
MEAN_ELEMENT_THEORY = SGP/SGP4

EPOCH          = 2025-12-17T13:15:34.291872
MEAN_MOTION    = 15.49313148
ECCENTRICITY   = .00006909
INCLINATION    = 53.1597
RA_OF_ASC_NODE = 164.1096
ARG_OF_PERICENTER = 81.3650
MEAN_ANOMALY   = 278.7438

EPHEMERIS_TYPE = 0
CLASSIFICATION_TYPE = U
NORAD_CAT_ID   = 66618
ELEMENT_SET_NO = 999
REV_AT_EPOCH   = 495
BSTAR          = .90764084E-3
MEAN_MOTION_DOT = .50364E-3
MEAN_MOTION_DDOT = 0

CCSDS_OMM_VERS = 2.0
CREATION_DATE  = 
ORIGINATOR     = 

OBJECT_NAME    = STARLINK-35951
OBJECT_ID      = 2025-271C
CENTER_NAME    = EARTH
REF_FRAME      = TEME
TIME_SYSTEM    = UTC
MEAN_ELEMENT_THEORY = SGP/SGP4

EPOCH          = 2025-12-17T15:00:13.219200
MEAN_MOTION    = 15.49347323
ECCENTRICITY   = .00006424
INCLINATION    = 53.1593
RA_OF_ASC_NODE = 163.8581
ARG_OF_PERICENTER = 13.2004
MEAN_ANOMALY   = 346.9022

EPHEMERIS_TYPE = 0
CLASSIFICATION_TYPE = U
NORAD_CAT_ID   = 66619
ELEMENT_SET_NO = 999
REV_AT_EPOCH   = 496
BSTAR          = .10930264E-2
MEAN_MOTION_DOT = .60899E-3
MEAN_MOTION_DDOT = 0

CCSDS_OMM_VERS = 2.0
CREATION_DATE  = 
ORIGINATOR     = 

OBJECT_NAME    = STARLINK-35936
OBJECT_ID      = 2025-271D
CENTER_NAME    = EARTH
REF_FRAME      = TEME
TIME_SYSTEM    = UTC
MEAN_ELEMENT_THEORY = SGP/SGP4

EPOCH          = 2025-12-17T15:01:42.246624
MEAN_MOTION    = 15.49324687
ECCENTRICITY   = .00012538
INCLINATION    = 53.1599
RA_OF_ASC_NODE = 163.8656
ARG_OF_PERICENTER = 90.3166
MEAN_ANOMALY   = 269.7987

EPHEMERIS_TYPE = 0
CLASSIFICATION_TYPE = U
NORAD_CAT_ID   = 66620
ELEMENT_SET_NO = 999
REV_AT_EPOCH   = 496
BSTAR          = .11865171E-2
MEAN_MOTION_DOT = .66138E-3
MEAN_MOTION_DDOT = 0

CCSDS_OMM_VERS = 2.0
CREATION_DATE  = 
ORIGINATOR     = 

OBJECT_NAME    = STARLINK-35847
OBJECT_ID      = 2025-271E
CENTER_NAME    = EARTH
REF_FRAME      = TEME
TIME_SYSTEM    = UTC
MEAN_ELEMENT_THEORY = SGP/SGP4

EPOCH          = 2025-12-17T13:14:38.143968
MEAN_MOTION    = 15.49330101
ECCENTRICITY   = .0000853
INCLINATION    = 53.1596
RA_OF_ASC_NODE = 164.1047
ARG_OF_PERICENTER = 30.3801
MEAN_ANOMALY   = 329.7258

EPHEMERIS_TYPE = 0
CLASSIFICATION_TYPE = U
NORAD_CAT_ID   = 66621
ELEMENT_SET_NO = 999
REV_AT_EPOCH   = 495
BSTAR          = .1312851E-2
MEAN_MOTION_DOT = .7331E-3
MEAN_MOTION_DDOT = 0

CCSDS_OMM_VERS = 2.0
CREATION_DATE  = 
ORIGINATOR     = 

OBJECT_NAME    = STARLINK-35950
OBJECT_ID      = 2025-271F
CENTER_NAME    = EARTH
REF_FRAME      = TEME
TIME_SYSTEM    = UTC
MEAN_ELEMENT_THEORY = SGP/SGP4

EPOCH          = 2025-12-17T14:00:03.000384
MEAN_MOTION    = 15.44516395
ECCENTRICITY   = .00012503
INCLINATION    = 53.1600
RA_OF_ASC_NODE = 164.0724
ARG_OF_PERICENTER = 72.0474
MEAN_ANOMALY   = 47.4875

EPHEMERIS_TYPE = 0
CLASSIFICATION_TYPE = U
NORAD_CAT_ID   = 66622
ELEMENT_SET_NO = 999
REV_AT_EPOCH   = 502
BSTAR          = -.50039763E-1
MEAN_MOTION_DOT = -.2091289E-1
MEAN_MOTION_DDOT = 0

CCSDS_OMM_VERS = 2.0
CREATION_DATE  = 
ORIGINATOR     = 

OBJECT_NAME    = STARLINK-35920
OBJECT_ID      = 2025-271G
CENTER_NAME    = EARTH
REF_FRAME      = TEME
TIME_SYSTEM    = UTC
MEAN_ELEMENT_THEORY = SGP/SGP4

EPOCH          = 2025-12-17T14:00:03.000384
MEAN_MOTION    = 15.39621707
ECCENTRICITY   = .00009712
INCLINATION    = 53.1594
RA_OF_ASC_NODE = 164.1543
ARG_OF_PERICENTER = 108.8402
MEAN_ANOMALY   = 328.6036

EPHEMERIS_TYPE = 0
CLASSIFICATION_TYPE = U
NORAD_CAT_ID   = 66623
ELEMENT_SET_NO = 999
REV_AT_EPOCH   = 502
BSTAR          = .77202571E-4
MEAN_MOTION_DOT = .269E-4
MEAN_MOTION_DDOT = 0

CCSDS_OMM_VERS = 2.0
CREATION_DATE  = 
ORIGINATOR     = 

OBJECT_NAME    = STARLINK-35927
OBJECT_ID      = 2025-271H
CENTER_NAME    = EARTH
REF_FRAME      = TEME
TIME_SYSTEM    = UTC
MEAN_ELEMENT_THEORY = SGP/SGP4

EPOCH          = 2025-12-17T13:26:20.407488
MEAN_MOTION    = 15.49322202
ECCENTRICITY   = .00008455
INCLINATION    = 53.1595
RA_OF_ASC_NODE = 164.1625
ARG_OF_PERICENTER = 67.9465
MEAN_ANOMALY   = 292.1633

EPHEMERIS_TYPE = 0
CLASSIFICATION_TYPE = U
NORAD_CAT_ID   = 66624
ELEMENT_SET_NO = 999
REV_AT_EPOCH   = 495
BSTAR          = .10703118E-2
MEAN_MOTION_DOT = .59561E-3
MEAN_MOTION_DDOT = 0

CCSDS_OMM_VERS = 2.0
CREATION_DATE  = 
ORIGINATOR     = 

OBJECT_NAME    = STARLINK-35929
OBJECT_ID      = 2025-271J
CENTER_NAME    = EARTH
REF_FRAME      = TEME
TIME_SYSTEM    = UTC
MEAN_ELEMENT_THEORY = SGP/SGP4

EPOCH          = 2025-12-17T13:25:20.966880
MEAN_MOTION    = 15.49335545
ECCENTRICITY   = .00014819
INCLINATION    = 53.1596
RA_OF_ASC_NODE = 164.1569
ARG_OF_PERICENTER = 102.8495
MEAN_ANOMALY   = 257.2680

EPHEMERIS_TYPE = 0
CLASSIFICATION_TYPE = U
NORAD_CAT_ID   = 66625
ELEMENT_SET_NO = 999
REV_AT_EPOCH   = 495
BSTAR          = .10908268E-2
MEAN_MOTION_DOT = .6075E-3
MEAN_MOTION_DDOT = 0

